{
  "links" : {
    "next" : "https://api.nasa.gov/neo/rest/v1/feed?start_date=2011-04-16&end_date=2011-04-16&detailed=true&api_key=t0TVs3DtDT2H8Oy2Zy8m2eVrNsAVKAexjcZXUckd",
    "prev" : "https://api.nasa.gov/neo/rest/v1/feed?start_date=2011-04-14&end_date=2011-04-14&detailed=true&api_key=t0TVs3DtDT2H8Oy2Zy8m2eVrNsAVKAexjcZXUckd",
    "self" : "https://api.nasa.gov/neo/rest/v1/feed?start_date=2011-04-15&end_date=2011-04-15&detailed=true&api_key=t0TVs3DtDT2H8Oy2Zy8m2eVrNsAVKAexjcZXUckd"
  },
  "element_count" : 11,
  "near_earth_objects" : {
    "2011-04-15" : [ {
      "links" : {
        "self" : "https://api.nasa.gov/neo/rest/v1/neo/2141484?api_key=t0TVs3DtDT2H8Oy2Zy8m2eVrNsAVKAexjcZXUckd"
      },
      "neo_reference_id" : "2141484",
      "name" : "141484 (2002 DB4)",
      "nasa_jpl_url" : "http://ssd.jpl.nasa.gov/sbdb.cgi?sstr=2141484",
      "absolute_magnitude_h" : 16.4,
      "estimated_diameter" : {
        "kilometers" : {
          "estimated_diameter_min" : 1.3949382293,
          "estimated_diameter_max" : 3.1191767052
        },
        "meters" : {
          "estimated_diameter_min" : 1394.9382293439,
          "estimated_diameter_max" : 3119.1767052261
        },
        "miles" : {
          "estimated_diameter_min" : 0.8667741625,
          "estimated_diameter_max" : 1.9381659485
        },
        "feet" : {
          "estimated_diameter_min" : 4576.5691403606,
          "estimated_diameter_max" : 10233.5197015741
        }
      },
      "is_potentially_hazardous_asteroid" : false,
      "close_approach_data" : [ {
        "close_approach_date" : "2011-04-15",
        "epoch_date_close_approach" : 1302850800000,
        "relative_velocity" : {
          "kilometers_per_second" : "14.9440511667",
          "kilometers_per_hour" : "53798.5842002492",
          "miles_per_hour" : "33428.3480548715"
        },
        "miss_distance" : {
          "astronomical" : "0.160562034",
          "lunar" : "62.4586334229",
          "kilometers" : "24019740",
          "miles" : "14925174"
        },
        "orbiting_body" : "Earth"
      } ],
      "orbital_data" : {
        "orbit_id" : "90",
        "orbit_determination_date" : "2017-04-06 09:27:33",
        "orbit_uncertainty" : "0",
        "minimum_orbit_intersection" : ".152107",
        "jupiter_tisserand_invariant" : "6.788",
        "epoch_osculation" : "2458000.5",
        "eccentricity" : ".3694822233031226",
        "semi_major_axis" : ".857901422249788",
        "inclination" : "16.60418560553134",
        "ascending_node_longitude" : "234.2660097897962",
        "orbital_period" : "290.2381576341548",
        "perihelion_distance" : ".5409220973820255",
        "perihelion_argument" : "94.12029937107167",
        "aphelion_distance" : "1.174880747117551",
        "perihelion_time" : "2458053.152654405127",
        "mean_anomaly" : "294.6917175179343",
        "mean_motion" : "1.240360684944052",
        "equinox" : "J2000"
      }
    }, {
      "links" : {
        "self" : "https://api.nasa.gov/neo/rest/v1/neo/3529625?api_key=t0TVs3DtDT2H8Oy2Zy8m2eVrNsAVKAexjcZXUckd"
      },
      "neo_reference_id" : "3529625",
      "name" : "(2010 LM68)",
      "nasa_jpl_url" : "http://ssd.jpl.nasa.gov/sbdb.cgi?sstr=3529625",
      "absolute_magnitude_h" : 20.8,
      "estimated_diameter" : {
        "kilometers" : {
          "estimated_diameter_min" : 0.1838886721,
          "estimated_diameter_max" : 0.411187571
        },
        "meters" : {
          "estimated_diameter_min" : 183.8886720703,
          "estimated_diameter_max" : 411.1875710413
        },
        "miles" : {
          "estimated_diameter_min" : 0.1142630881,
          "estimated_diameter_max" : 0.2555000322
        },
        "feet" : {
          "estimated_diameter_min" : 603.309310875,
          "estimated_diameter_max" : 1349.040630575
        }
      },
      "is_potentially_hazardous_asteroid" : false,
      "close_approach_data" : [ {
        "close_approach_date" : "2011-04-15",
        "epoch_date_close_approach" : 1302850800000,
        "relative_velocity" : {
          "kilometers_per_second" : "8.8217791251",
          "kilometers_per_hour" : "31758.4048505341",
          "miles_per_hour" : "19733.4377250444"
        },
        "miss_distance" : {
          "astronomical" : "0.3605150017",
          "lunar" : "140.2403411865",
          "kilometers" : "53932276",
          "miles" : "33511962"
        },
        "orbiting_body" : "Earth"
      } ],
      "orbital_data" : {
        "orbit_id" : "29",
        "orbit_determination_date" : "2017-04-06 08:57:18",
        "orbit_uncertainty" : "2",
        "minimum_orbit_intersection" : ".120057",
        "jupiter_tisserand_invariant" : "5.756",
        "epoch_osculation" : "2458000.5",
        "eccentricity" : ".2612976219344793",
        "semi_major_axis" : "1.060932779274301",
        "inclination" : "12.27612069220059",
        "ascending_node_longitude" : "232.7413944874224",
        "orbital_period" : "399.1445729429328",
        "perihelion_distance" : ".7837135670175882",
        "perihelion_argument" : "137.5407797478256",
        "aphelion_distance" : "1.338151991531014",
        "perihelion_time" : "2457843.685607323766",
        "mean_anomaly" : "141.4354226269677",
        "mean_motion" : ".9019288358242831",
        "equinox" : "J2000"
      }
    }, {
      "links" : {
        "self" : "https://api.nasa.gov/neo/rest/v1/neo/3560817?api_key=t0TVs3DtDT2H8Oy2Zy8m2eVrNsAVKAexjcZXUckd"
      },
      "neo_reference_id" : "3560817",
      "name" : "(2011 FS29)",
      "nasa_jpl_url" : "http://ssd.jpl.nasa.gov/sbdb.cgi?sstr=3560817",
      "absolute_magnitude_h" : 22.6,
      "estimated_diameter" : {
        "kilometers" : {
          "estimated_diameter_min" : 0.0802703167,
          "estimated_diameter_max" : 0.1794898848
        },
        "meters" : {
          "estimated_diameter_min" : 80.2703167283,
          "estimated_diameter_max" : 179.4898847799
        },
        "miles" : {
          "estimated_diameter_min" : 0.049877647,
          "estimated_diameter_max" : 0.1115298092
        },
        "feet" : {
          "estimated_diameter_min" : 263.3540659348,
          "estimated_diameter_max" : 588.8775935812
        }
      },
      "is_potentially_hazardous_asteroid" : false,
      "close_approach_data" : [ {
        "close_approach_date" : "2011-04-15",
        "epoch_date_close_approach" : 1302850800000,
        "relative_velocity" : {
          "kilometers_per_second" : "11.2946983345",
          "kilometers_per_hour" : "40660.914004281",
          "miles_per_hour" : "25265.1107044934"
        },
        "miss_distance" : {
          "astronomical" : "0.0332487946",
          "lunar" : "12.9337806702",
          "kilometers" : "4973948.5",
          "miles" : "3090668.5"
        },
        "orbiting_body" : "Earth"
      } ],
      "orbital_data" : {
        "orbit_id" : "23",
        "orbit_determination_date" : "2017-04-06 08:53:57",
        "orbit_uncertainty" : "4",
        "minimum_orbit_intersection" : ".0268535",
        "jupiter_tisserand_invariant" : "4.425",
        "epoch_osculation" : "2458000.5",
        "eccentricity" : ".379930048572159",
        "semi_major_axis" : "1.507087315662832",
        "inclination" : "12.49489297082722",
        "ascending_node_longitude" : "22.14668240464911",
        "orbital_period" : "675.7811115132225",
        "perihelion_distance" : ".9344995586205679",
        "perihelion_argument" : "231.3226657580131",
        "aphelion_distance" : "2.079675072705097",
        "perihelion_time" : "2457733.623625202367",
        "mean_anomaly" : "142.1695476394921",
        "mean_motion" : ".5327168721746023",
        "equinox" : "J2000"
      }
    } ]
  }
}